[{"OBJECT_NAME":"QZS-3 (MICHIBIKI-3)","OBJECT_ID":"2017-048A","EPOCH":"2026-03-28T20:31:25.080960","MEAN_MOTION":1.00274303,"ECCENTRICITY":0.00020498,"INCLINATION":0.0543,"RA_OF_ASC_NODE":160.6297,"ARG_OF_PERICENTER":199.2265,"MEAN_ANOMALY":261.2717,"EPHEMERIS_TYPE":0,"CLASSIFICATION_TYPE":"U","NORAD_CAT_ID":42917,"ELEMENT_SET_NO":999,"REV_AT_EPOCH":3145,"BSTAR":0,"MEAN_MOTION_DOT":-3.67e-6,"MEAN_MOTION_DDOT":0},{"OBJECT_NAME":"AMAZONAS 5","OBJECT_ID":"2017-053A","EPOCH":"2026-03-28T11:04:19.697376","MEAN_MOTION":1.0027112,"ECCENTRICITY":0.0004979,"INCLINATION":0.0462,"RA_OF_ASC_NODE":320.3954,"ARG_OF_PERICENTER":21.8938,"MEAN_ANOMALY":308.6635,"EPHEMERIS_TYPE":0,"CLASSIFICATION_TYPE":"U","NORAD_CAT_ID":42934,"ELEMENT_SET_NO":999,"REV_AT_EPOCH":3123,"BSTAR":0,"MEAN_MOTION_DOT":-3.02e-6,"MEAN_MOTION_DDOT":0},{"OBJECT_NAME":"ASIASAT 9","OBJECT_ID":"2017-057A","EPOCH":"2026-03-27T15:24:25.272288","MEAN_MOTION":1.00270081,"ECCENTRICITY":0.00020585,"INCLINATION":0.0114,"RA_OF_ASC_NODE":206.7351,"ARG_OF_PERICENTER":158.903,"MEAN_ANOMALY":172.6394,"EPHEMERIS_TYPE":0,"CLASSIFICATION_TYPE":"U","NORAD_CAT_ID":42942,"ELEMENT_SET_NO":999,"REV_AT_EPOCH":3104,"BSTAR":0,"MEAN_MOTION_DOT":-3.78e-6,"MEAN_MOTION_DDOT":0},{"OBJECT_NAME":"INTELSAT 37E (IS-37E)","OBJECT_ID":"2017-059A","EPOCH":"2026-03-28T20:04:38.593056","MEAN_MOTION":1.00268827,"ECCENTRICITY":0.00020368,"INCLINATION":0.0239,"RA_OF_ASC_NODE":175.4387,"ARG_OF_PERICENTER":201.1994,"MEAN_ANOMALY":92.7782,"EPHEMERIS_TYPE":0,"CLASSIFICATION_TYPE":"U","NORAD_CAT_ID":42950,"ELEMENT_SET_NO":999,"REV_AT_EPOCH":3126,"BSTAR":0,"MEAN_MOTION_DOT":0,"MEAN_MOTION_DDOT":0},{"OBJECT_NAME":"BSAT-4A","OBJECT_ID":"2017-059B","EPOCH":"2026-03-28T21:50:38.837472","MEAN_MOTION":1.00269876,"ECCENTRICITY":0.00044046,"INCLINATION":0.0668,"RA_OF_ASC_NODE":42.7004,"ARG_OF_PERICENTER":349.3971,"MEAN_ANOMALY":231.708,"EPHEMERIS_TYPE":0,"CLASSIFICATION_TYPE":"U","NORAD_CAT_ID":42951,"ELEMENT_SET_NO":999,"REV_AT_EPOCH":3099,"BSTAR":0,"MEAN_MOTION_DOT":-3.7e-6,"MEAN_MOTION_DDOT":0},{"OBJECT_NAME":"QZS-4 (MICHIBIKI-4)","OBJECT_ID":"2017-062A","EPOCH":"2026-03-28T13:42:11.532384","MEAN_MOTION":1.00273721,"ECCENTRICITY":0.0748036,"INCLINATION":40.1569,"RA_OF_ASC_NODE":344.5133,"ARG_OF_PERICENTER":270.3627,"MEAN_ANOMALY":277.2698,"EPHEMERIS_TYPE":0,"CLASSIFICATION_TYPE":"U","NORAD_CAT_ID":42965,"ELEMENT_SET_NO":999,"REV_AT_EPOCH":3099,"BSTAR":0,"MEAN_MOTION_DOT":-3.34e-6,"MEAN_MOTION_DDOT":0},{"OBJECT_NAME":"SES-11 (ECHOSTAR 105)","OBJECT_ID":"2017-063A","EPOCH":"2026-03-28T21:07:51.586752","MEAN_MOTION":1.00271656,"ECCENTRICITY":0.00025654,"INCLINATION":0.0453,"RA_OF_ASC_NODE":25.1269,"ARG_OF_PERICENTER":350.3675,"MEAN_ANOMALY":22.803,"EPHEMERIS_TYPE":0,"CLASSIFICATION_TYPE":"U","NORAD_CAT_ID":42967,"ELEMENT_SET_NO":999,"REV_AT_EPOCH":3091,"BSTAR":0,"MEAN_MOTION_DOT":-1.09e-6,"MEAN_MOTION_DDOT":0},{"OBJECT_NAME":"KOREASAT 5A","OBJECT_ID":"2017-067A","EPOCH":"2026-03-28T21:42:38.640096","MEAN_MOTION":1.00272972,"ECCENTRICITY":0.00018326,"INCLINATION":0.0145,"RA_OF_ASC_NODE":261.0944,"ARG_OF_PERICENTER":124.3131,"MEAN_ANOMALY":239.713,"EPHEMERIS_TYPE":0,"CLASSIFICATION_TYPE":"U","NORAD_CAT_ID":42984,"ELEMENT_SET_NO":999,"REV_AT_EPOCH":3072,"BSTAR":0,"MEAN_MOTION_DOT":-3.78e-6,"MEAN_MOTION_DDOT":0},{"OBJECT_NAME":"ALCOMSAT 1","OBJECT_ID":"2017-078A","EPOCH":"2026-03-28T20:12:38.537280","MEAN_MOTION":1.00271556,"ECCENTRICITY":0.00026498,"INCLINATION":0.0182,"RA_OF_ASC_NODE":161.5009,"ARG_OF_PERICENTER":183.7514,"MEAN_ANOMALY":119.3629,"EPHEMERIS_TYPE":0,"CLASSIFICATION_TYPE":"U","NORAD_CAT_ID":43039,"ELEMENT_SET_NO":999,"REV_AT_EPOCH":3049,"BSTAR":0,"MEAN_MOTION_DOT":-2.06e-6,"MEAN_MOTION_DDOT":0},{"OBJECT_NAME":"SBIRS GEO-3 (USA 282)","OBJECT_ID":"2018-009A","EPOCH":"2026-03-28T15:44:22.315776","MEAN_MOTION":1.0027234,"ECCENTRICITY":0.00022875,"INCLINATION":2.1351,"RA_OF_ASC_NODE":8.1663,"ARG_OF_PERICENTER":350.3426,"MEAN_ANOMALY":264.2393,"EPHEMERIS_TYPE":0,"CLASSIFICATION_TYPE":"U","NORAD_CAT_ID":43162,"ELEMENT_SET_NO":999,"REV_AT_EPOCH":3003,"BSTAR":0,"MEAN_MOTION_DOT":1.1e-6,"MEAN_MOTION_DDOT":0},{"OBJECT_NAME":"AL YAH 3","OBJECT_ID":"2018-012A","EPOCH":"2026-03-28T19:46:38.566272","MEAN_MOTION":1.00272092,"ECCENTRICITY":0.00042787,"INCLINATION":1.3448,"RA_OF_ASC_NODE":84.0586,"ARG_OF_PERICENTER":288.1714,"MEAN_ANOMALY":90.5607,"EPHEMERIS_TYPE":0,"CLASSIFICATION_TYPE":"U","NORAD_CAT_ID":43174,"ELEMENT_SET_NO":999,"REV_AT_EPOCH":3004,"BSTAR":0,"MEAN_MOTION_DOT":-1.74e-6,"MEAN_MOTION_DDOT":0},{"OBJECT_NAME":"SES-14","OBJECT_ID":"2018-012B","EPOCH":"2026-03-28T07:42:53.551296","MEAN_MOTION":1.00272419,"ECCENTRICITY":9.068e-5,"INCLINATION":0.0329,"RA_OF_ASC_NODE":45.6423,"ARG_OF_PERICENTER":305.1287,"MEAN_ANOMALY":263.1805,"EPHEMERIS_TYPE":0,"CLASSIFICATION_TYPE":"U","NORAD_CAT_ID":43175,"ELEMENT_SET_NO":999,"REV_AT_EPOCH":621,"BSTAR":0,"MEAN_MOTION_DOT":-2.98e-6,"MEAN_MOTION_DDOT":0},{"OBJECT_NAME":"GOES 17","OBJECT_ID":"2018-022A","EPOCH":"2026-03-28T14:21:37.751040","MEAN_MOTION":1.00271175,"ECCENTRICITY":0.0001538,"INCLINATION":0.7312,"RA_OF_ASC_NODE":86.9387,"ARG_OF_PERICENTER":236.4458,"MEAN_ANOMALY":348.5274,"EPHEMERIS_TYPE":0,"CLASSIFICATION_TYPE":"U","NORAD_CAT_ID":43226,"ELEMENT_SET_NO":999,"REV_AT_EPOCH":2961,"BSTAR":0,"MEAN_MOTION_DOT":-2.01e-6,"MEAN_MOTION_DDOT":0},{"OBJECT_NAME":"HISPASAT 30W-6","OBJECT_ID":"2018-023A","EPOCH":"2026-03-28T18:03:53.938368","MEAN_MOTION":1.00270437,"ECCENTRICITY":0.00059612,"INCLINATION":0.0255,"RA_OF_ASC_NODE":78.997,"ARG_OF_PERICENTER":300.9535,"MEAN_ANOMALY":47.1938,"EPHEMERIS_TYPE":0,"CLASSIFICATION_TYPE":"U","NORAD_CAT_ID":43228,"ELEMENT_SET_NO":999,"REV_AT_EPOCH":2959,"BSTAR":0,"MEAN_MOTION_DOT":0,"MEAN_MOTION_DDOT":0},{"OBJECT_NAME":"SUPERBIRD-B3","OBJECT_ID":"2018-033A","EPOCH":"2026-03-28T06:59:57.668352","MEAN_MOTION":1.00271444,"ECCENTRICITY":0.0001234,"INCLINATION":0.0264,"RA_OF_ASC_NODE":94.8094,"ARG_OF_PERICENTER":279.3454,"MEAN_ANOMALY":78.5316,"EPHEMERIS_TYPE":0,"CLASSIFICATION_TYPE":"U","NORAD_CAT_ID":43271,"ELEMENT_SET_NO":999,"REV_AT_EPOCH":2924,"BSTAR":0,"MEAN_MOTION_DOT":-1.12e-6,"MEAN_MOTION_DDOT":0},{"OBJECT_NAME":"HYLAS 4","OBJECT_ID":"2018-033B","EPOCH":"2026-03-28T20:37:38.721216","MEAN_MOTION":1.0026915,"ECCENTRICITY":0.00010472,"INCLINATION":0.0219,"RA_OF_ASC_NODE":108.1804,"ARG_OF_PERICENTER":268.2684,"MEAN_ANOMALY":85.6583,"EPHEMERIS_TYPE":0,"CLASSIFICATION_TYPE":"U","NORAD_CAT_ID":43272,"ELEMENT_SET_NO":999,"REV_AT_EPOCH":2926,"BSTAR":0,"MEAN_MOTION_DOT":-2.54e-6,"MEAN_MOTION_DDOT":0},{"OBJECT_NAME":"IRNSS-1I","OBJECT_ID":"2018-035A","EPOCH":"2026-03-28T13:19:58.662048","MEAN_MOTION":1.00276129,"ECCENTRICITY":0.00186,"INCLINATION":28.9893,"RA_OF_ASC_NODE":75.4371,"ARG_OF_PERICENTER":189.5578,"MEAN_ANOMALY":176.071,"EPHEMERIS_TYPE":0,"CLASSIFICATION_TYPE":"U","NORAD_CAT_ID":43286,"ELEMENT_SET_NO":999,"REV_AT_EPOCH":2927,"BSTAR":0,"MEAN_MOTION_DOT":8.6e-7,"MEAN_MOTION_DDOT":0}]
