QZS-3 (MICHIBIKI-3)     
1 42917U 17048A   26087.85515140 -.00000367  00000+0  00000+0 0  9990
2 42917   0.0543 160.6297 0002049 199.2265 261.2717  1.00274303 31456
AMAZONAS 5              
1 42934U 17053A   26087.46133909 -.00000302  00000+0  00000+0 0  9990
2 42934   0.0462 320.3954 0004979  21.8938 308.6635  1.00271120 31236
ASIASAT 9               
1 42942U 17057A   26086.64195917 -.00000378  00000+0  00000+0 0  9992
2 42942   0.0114 206.7351 0002058 158.9030 172.6394  1.00270081 31043
INTELSAT 37E (IS-37E)   
1 42950U 17059A   26087.83655779  .00000000  00000+0  00000+0 0  9993
2 42950   0.0239 175.4387 0002036 201.1994  92.7782  1.00268827 31269
BSAT-4A                 
1 42951U 17059B   26087.91017173 -.00000370  00000+0  00000+0 0  9994
2 42951   0.0668  42.7004 0004404 349.3971 231.7080  1.00269876 30999
QZS-4 (MICHIBIKI-4)     
1 42965U 17062A   26087.57096681 -.00000334  00000+0  00000+0 0  9996
2 42965  40.1569 344.5133 0748036 270.3627 277.2698  1.00273721 30996
SES-11 (ECHOSTAR 105)   
1 42967U 17063A   26087.88045818 -.00000109  00000+0  00000+0 0  9999
2 42967   0.0453  25.1269 0002565 350.3675  22.8030  1.00271656 30910
KOREASAT 5A             
1 42984U 17067A   26087.90461389 -.00000378  00000+0  00000+0 0  9998
2 42984   0.0145 261.0944 0001832 124.3131 239.7130  1.00272972 30721
ALCOMSAT 1              
1 43039U 17078A   26087.84211270 -.00000206  00000+0  00000+0 0  9997
2 43039   0.0182 161.5009 0002649 183.7514 119.3629  1.00271556 30498
SBIRS GEO-3 (USA 282)   
1 43162U 18009A   26087.65581384  .00000110  00000+0  00000+0 0  9997
2 43162   2.1351   8.1663 0002287 350.3426 264.2393  1.00272340 30030
AL YAH 3                
1 43174U 18012A   26087.82405748 -.00000174  00000+0  00000+0 0  9993
2 43174   1.3448  84.0586 0004278 288.1714  90.5607  1.00272092 30041
SES-14                  
1 43175U 18012B   26087.32145314 -.00000298  00000+0  00000+0 0  9996
2 43175   0.0329  45.6423 0000906 305.1287 263.1805  1.00272419  6211
GOES 17                 
1 43226U 18022A   26087.59835360 -.00000201  00000+0  00000+0 0  9994
2 43226   0.7312  86.9387 0001538 236.4458 348.5274  1.00271175 29617
HISPASAT 30W-6          
1 43228U 18023A   26087.75270762  .00000000  00000+0  00000+0 0  9990
2 43228   0.0255  78.9970 0005961 300.9535  47.1938  1.00270437 29590
SUPERBIRD-B3            
1 43271U 18033A   26087.29163968 -.00000112  00000+0  00000+0 0  9992
2 43271   0.0264  94.8094 0001234 279.3454  78.5316  1.00271444 29249
HYLAS 4                 
1 43272U 18033B   26087.85947594 -.00000254  00000+0  00000+0 0  9997
2 43272   0.0219 108.1804 0001047 268.2684  85.6583  1.00269150 29260
IRNSS-1I                
1 43286U 18035A   26087.55554007  .00000086  00000+0  00000+0 0  9996
2 43286  28.9893  75.4371 0018600 189.5578 176.0710  1.00276129 29279
